[{"OBJECT_NAME":"STARLINK-34981","OBJECT_ID":"2025-176A","EPOCH":"2026-03-09T12:25:36.448608","MEAN_MOTION":15.30184332,"ECCENTRICITY":0.00016686,"INCLINATION":53.1594,"RA_OF_ASC_NODE":156.3923,"ARG_OF_PERICENTER":67.0302,"MEAN_ANOMALY":293.0875,"EPHEMERIS_TYPE":0,"CLASSIFICATION_TYPE":"U","NORAD_CAT_ID":65198,"ELEMENT_SET_NO":999,"REV_AT_EPOCH":3305,"BSTAR":0.001343856,"MEAN_MOTION_DOT":0.00039635,"MEAN_MOTION_DDOT":0},{"OBJECT_NAME":"COSMOS 1869","OBJECT_ID":"1987-062A","EPOCH":"2026-03-09T20:30:29.271744","MEAN_MOTION":15.35392408,"ECCENTRICITY":0.00185772,"INCLINATION":82.5127,"RA_OF_ASC_NODE":201.6716,"ARG_OF_PERICENTER":61.4986,"MEAN_ANOMALY":298.8125,"EPHEMERIS_TYPE":0,"CLASSIFICATION_TYPE":"U","NORAD_CAT_ID":18214,"ELEMENT_SET_NO":999,"REV_AT_EPOCH":8931,"BSTAR":0.00042037944,"MEAN_MOTION_DOT":0.00014573,"MEAN_MOTION_DDOT":0}]
